SENTINEL-6A             
1 46984U 20086A   26197.67626227 -.00000039  00000+0  96185-4 0  9995
2 46984  66.0412  73.8043 0007781 269.6984  90.3140 12.80930202264101
SENTINEL-6B             
1 66514U 25264A   26197.67661028 -.00000041  00000+0  87365-4 0  9990
2 66514  66.0412  73.9297 0007842 268.5768  91.4349 12.80930175 30945
